{"type": "FeatureCollection", "features": [ {"type": "Feature", "properties": {"norad_id": 66621, "name": "STARLINK-35847", "group": "last-30-days", "lat": 11.174091903870963, "lon": -175.9804962886861, "alt_km": 418.3694788443827, "timestamp": "2025-12-15T04:01:19.180275+00:00", "meta": {"OBJECT_NAME": "STARLINK-35847", "OBJECT_ID": "2025-271E", "EPOCH": "2025-12-14T06:00:02.999808", "MEAN_MOTION": 15.49400218, "ECCENTRICITY": 7.476e-05, "INCLINATION": 53.1601, "RA_OF_ASC_NODE": 179.891, "ARG_OF_PERICENTER": 67.983, "MEAN_ANOMALY": 225.7588, "EPHEMERIS_TYPE": 0, "CLASSIFICATION_TYPE": "U", "NORAD_CAT_ID": 66621, "ELEMENT_SET_NO": 999, "REV_AT_EPOCH": 448, "BSTAR": -0.0027953596, "MEAN_MOTION_DOT": -0.0015339, "MEAN_MOTION_DDOT": 0}, "tle": {"line1": "1 66621U 25271E   25348.25003472 -.00153390  00000+0 -27954-2 0  9994", "line2": "2 66621  53.1601 179.8910 0000747  67.9830 225.7588 15.49400218  4482"}}, "geometry": {"type": "Point", "coordinates": [-175.9804962886861, 11.174091903870963]}}, {"type": "Feature", "properties": {"norad_id": 66622, "name": "STARLINK-35950", "group": "last-30-days", "lat": -25.974724839451717, "lon": 154.1803350233756, "alt_km": 422.9683999584249, "timestamp": "2025-12-15T04:01:19.180286+00:00", "meta": {"OBJECT_NAME": "STARLINK-35950", "OBJECT_ID": "2025-271F", "EPOCH": "2025-12-14T06:00:02.999808", "MEAN_MOTION": 15.49352848, "ECCENTRICITY": 7.64e-05, "INCLINATION": 53.1601, "RA_OF_ASC_NODE": 179.9916, "ARG_OF_PERICENTER": 85.0465, "MEAN_ANOMALY": 161.4622, "EPHEMERIS_TYPE": 0, "CLASSIFICATION_TYPE": "U", "NORAD_CAT_ID": 66622, "ELEMENT_SET_NO": 999, "REV_AT_EPOCH": 448, "BSTAR": -0.0017450764, "MEAN_MOTION_DOT": -0.0009646, "MEAN_MOTION_DDOT": 0}, "tle": {"line1": "1 66622U 25271F   25348.25003472 -.00096460  00000+0 -17451-2 0  9990", "line2": "2 66622  53.1601 179.9916 0000764  85.0465 161.4622 15.49352848  4484"}}, "geometry": {"type": "Point", "coordinates": [154.1803350233756, -25.974724839451717]}}, {"type": "Feature", "properties": {"norad_id": 66623, "name": "STARLINK-35920", "group": "last-30-days", "lat": -23.031760272482757, "lon": 157.00859324249643, "alt_km": 422.7923598929947, "timestamp": "2025-12-15T04:01:19.180298+00:00", "meta": {"OBJECT_NAME": "STARLINK-35920", "OBJECT_ID": "2025-271G", "EPOCH": "2025-12-14T06:00:02.999808", "MEAN_MOTION": 15.49356845, "ECCENTRICITY": 0.0001189, "INCLINATION": 53.1602, "RA_OF_ASC_NODE": 179.9828, "ARG_OF_PERICENTER": 93.9748, "MEAN_ANOMALY": 156.3591, "EPHEMERIS_TYPE": 0, "CLASSIFICATION_TYPE": "U", "NORAD_CAT_ID": 66623, "ELEMENT_SET_NO": 999, "REV_AT_EPOCH": 448, "BSTAR": -0.0012524123, "MEAN_MOTION_DOT": -0.00069602, "MEAN_MOTION_DDOT": 0}, "tle": {"line1": "1 66623U 25271G   25348.25003472 -.00069602  00000+0 -12524-2 0  9995", "line2": "2 66623  53.1602 179.9828 0001189  93.9748 156.3591 15.49356845  4481"}}, "geometry": {"type": "Point", "coordinates": [157.00859324249643, -23.031760272482757]}}, {"type": "Feature", "properties": {"norad_id": 66624, "name": "STARLINK-35927", "group": "last-30-days", "lat": -24.52365117547016, "lon": 155.59819439869133, "alt_km": 422.7427278105815, "timestamp": "2025-12-15T04:01:19.180308+00:00", "meta": {"OBJECT_NAME": "STARLINK-35927", "OBJECT_ID": "2025-271H", "EPOCH": "2025-12-14T06:00:02.999808", "MEAN_MOTION": 15.49346464, "ECCENTRICITY": 7.079e-05, "INCLINATION": 53.1601, "RA_OF_ASC_NODE": 179.9876, "ARG_OF_PERICENTER": 83.0743, "MEAN_ANOMALY": 165.3461, "EPHEMERIS_TYPE": 0, "CLASSIFICATION_TYPE": "U", "NORAD_CAT_ID": 66624, "ELEMENT_SET_NO": 999, "REV_AT_EPOCH": 448, "BSTAR": -0.0014502052, "MEAN_MOTION_DOT": -0.00080381, "MEAN_MOTION_DDOT": 0}, "tle": {"line1": "1 66624U 25271H   25348.25003472 -.00080381  00000+0 -14502-2 0  9991", "line2": "2 66624  53.1601 179.9876 0000707  83.0743 165.3461 15.49346464  4486"}}, "geometry": {"type": "Point", "coordinates": [155.59819439869133, -24.52365117547016]}}, {"type": "Feature", "properties": {"norad_id": 66625, "name": "STARLINK-35929", "group": "last-30-days", "lat": -21.617486988542503, "lon": 158.30712521947723, "alt_km": 422.6441195587877, "timestamp": "2025-12-15T04:01:19.180318+00:00", "meta": {"OBJECT_NAME": "STARLINK-35929", "OBJECT_ID": "2025-271J", "EPOCH": "2025-12-14T06:00:02.999808", "MEAN_MOTION": 15.49349128, "ECCENTRICITY": 0.00011524, "INCLINATION": 53.1601, "RA_OF_ASC_NODE": 179.9788, "ARG_OF_PERICENTER": 88.0421, "MEAN_ANOMALY": 164.2045, "EPHEMERIS_TYPE": 0, "CLASSIFICATION_TYPE": "U", "NORAD_CAT_ID": 66625, "ELEMENT_SET_NO": 999, "REV_AT_EPOCH": 448, "BSTAR": -0.0014150202, "MEAN_MOTION_DOT": -0.00078471, "MEAN_MOTION_DDOT": 0}, "tle": {"line1": "1 66625U 25271J   25348.25003472 -.00078471  00000+0 -14150-2 0  9998", "line2": "2 66625  53.1601 179.9788 0001152  88.0421 164.2045 15.49349128  4488"}}, "geometry": {"type": "Point", "coordinates": [158.30712521947723, -21.617486988542503]}}, {"type": "Feature", "properties": {"norad_id": 66626, "name": "STARLINK-35902", "group": "last-30-days", "lat": -20.17623781949504, "lon": 159.5955971136022, "alt_km": 422.5263133119879, "timestamp": "2025-12-15T04:01:19.180328+00:00", "meta": {"OBJECT_NAME": "STARLINK-35902", "OBJECT_ID": "2025-271K", "EPOCH": "2025-12-14T06:00:02.999808", "MEAN_MOTION": 15.49356601, "ECCENTRICITY": 6.554e-05, "INCLINATION": 53.1601, "RA_OF_ASC_NODE": 179.9749, "ARG_OF_PERICENTER": 96.4948, "MEAN_ANOMALY": 157.6832, "EPHEMERIS_TYPE": 0, "CLASSIFICATION_TYPE": "U", "NORAD_CAT_ID": 66626, "ELEMENT_SET_NO": 999, "REV_AT_EPOCH": 448, "BSTAR": -0.001891062, "MEAN_MOTION_DOT": -0.00104399, "MEAN_MOTION_DDOT": 0}, "tle": {"line1": "1 66626U 25271K   25348.25003472 -.00104399  00000+0 -18911-2 0  9997", "line2": "2 66626  53.1601 179.9749 0000655  96.4948 157.6832 15.49356601  4484"}}, "geometry": {"type": "Point", "coordinates": [159.5955971136022, -20.17623781949504]}}, {"type": "Feature", "properties": {"norad_id": 66627, "name": "STARLINK-35904", "group": "last-30-days", "lat": -18.68381025969294, "lon": 160.8961731343766, "alt_km": 422.2913300393084, "timestamp": "2025-12-15T04:01:19.180338+00:00", "meta": {"OBJECT_NAME": "STARLINK-35904", "OBJECT_ID": "2025-271L", "EPOCH": "2025-12-14T06:00:02.999808", "MEAN_MOTION": 15.49350675, "ECCENTRICITY": 7.211e-05, "INCLINATION": 53.1601, "RA_OF_ASC_NODE": 179.9708, "ARG_OF_PERICENTER": 88.8041, "MEAN_ANOMALY": 167.2868, "EPHEMERIS_TYPE": 0, "CLASSIFICATION_TYPE": "U", "NORAD_CAT_ID": 66627, "ELEMENT_SET_NO": 999, "REV_AT_EPOCH": 432, "BSTAR": -0.0016335423, "MEAN_MOTION_DOT": -0.00090385, "MEAN_MOTION_DDOT": 0}, "tle": {"line1": "1 66627U 25271L   25348.25003472 -.00090385  00000+0 -16335-2 0  9995", "line2": "2 66627  53.1601 179.9708 0000721  88.8041 167.2868 15.49350675  4327"}}, "geometry": {"type": "Point", "coordinates": [160.8961731343766, -18.68381025969294]}}, {"type": "Feature", "properties": {"norad_id": 66628, "name": "STARLINK-35862", "group": "last-30-days", "lat": -17.20448863668786, "lon": 162.15552047488305, "alt_km": 422.1743965678097, "timestamp": "2025-12-15T04:01:19.180348+00:00", "meta": {"OBJECT_NAME": "STARLINK-35862", "OBJECT_ID": "2025-271M", "EPOCH": "2025-12-14T06:00:02.999808", "MEAN_MOTION": 15.49350243, "ECCENTRICITY": 7.8e-05, "INCLINATION": 53.1601, "RA_OF_ASC_NODE": 179.9668, "ARG_OF_PERICENTER": 88.1004, "MEAN_ANOMALY": 169.9119, "EPHEMERIS_TYPE": 0, "CLASSIFICATION_TYPE": "U", "NORAD_CAT_ID": 66628, "ELEMENT_SET_NO": 999, "REV_AT_EPOCH": 448, "BSTAR": -0.0017054899, "MEAN_MOTION_DOT": -0.00094299, "MEAN_MOTION_DDOT": 0}, "tle": {"line1": "1 66628U 25271M   25348.25003472 -.00094299  00000+0 -17055-2 0  9994", "line2": "2 66628  53.1601 179.9668 0000780  88.1004 169.9119 15.49350243  4486"}}, "geometry": {"type": "Point", "coordinates": [162.15552047488305, -17.20448863668786]}}, {"type": "Feature", "properties": {"norad_id": 66629, "name": "STARLINK-35956", "group": "last-30-days", "lat": -15.704694279884656, "lon": 163.40576520279964, "alt_km": 422.02601940074146, "timestamp": "2025-12-15T04:01:19.180358+00:00", "meta": {"OBJECT_NAME": "STARLINK-35956", "OBJECT_ID": "2025-271N", "EPOCH": "2025-12-14T06:00:02.999808", "MEAN_MOTION": 15.49349379, "ECCENTRICITY": 7.644e-05, "INCLINATION": 53.1601, "RA_OF_ASC_NODE": 179.9633, "ARG_OF_PERICENTER": 91.6766, "MEAN_ANOMALY": 168.251, "EPHEMERIS_TYPE": 0, "CLASSIFICATION_TYPE": "U", "NORAD_CAT_ID": 66629, "ELEMENT_SET_NO": 999, "REV_AT_EPOCH": 448, "BSTAR": -0.0016430753, "MEAN_MOTION_DOT": -0.00090901, "MEAN_MOTION_DDOT": 0}, "tle": {"line1": "1 66629U 25271N   25348.25003472 -.00090901  00000+0 -16431-2 0  9998", "line2": "2 66629  53.1601 179.9633 0000764  91.6766 168.2510 15.49349379  4480"}}, "geometry": {"type": "Point", "coordinates": [163.40576520279964, -15.704694279884656]}}, {"type": "Feature", "properties": {"norad_id": 66630, "name": "STARLINK-35949", "group": "last-30-days", "lat": -14.162064343071776, "lon": 164.6648309827389, "alt_km": 421.4691797135838, "timestamp": "2025-12-15T04:01:19.180370+00:00", "meta": {"OBJECT_NAME": "STARLINK-35949", "OBJECT_ID": "2025-271P", "EPOCH": "2025-12-14T06:00:02.999808", "MEAN_MOTION": 15.49263713, "ECCENTRICITY": 9.548e-05, "INCLINATION": 53.1601, "RA_OF_ASC_NODE": 179.9581, "ARG_OF_PERICENTER": 90.462, "MEAN_ANOMALY": 171.3373, "EPHEMERIS_TYPE": 0, "CLASSIFICATION_TYPE": "U", "NORAD_CAT_ID": 66630, "ELEMENT_SET_NO": 999, "REV_AT_EPOCH": 448, "BSTAR": 0.00062381166, "MEAN_MOTION_DOT": 0.00034343, "MEAN_MOTION_DDOT": 0}, "tle": {"line1": "1 66630U 25271P   25348.25003472  .00034343  00000+0  62381-3 0  9992", "line2": "2 66630  53.1601 179.9581 0000954  90.4620 171.3373 15.49263713  4480"}}, "geometry": {"type": "Point", "coordinates": [164.6648309827389, -14.162064343071776]}}]}